[{"OBJECT_NAME":"STARLINK-3737","OBJECT_ID":"2022-029AC","EPOCH":"2026-03-09T08:29:49.988256","MEAN_MOTION":15.08848811,"ECCENTRICITY":0.00012476,"INCLINATION":53.2168,"RA_OF_ASC_NODE":80.6254,"ARG_OF_PERICENTER":81.4219,"MEAN_ANOMALY":278.6914,"EPHEMERIS_TYPE":0,"CLASSIFICATION_TYPE":"U","NORAD_CAT_ID":52114,"ELEMENT_SET_NO":999,"REV_AT_EPOCH":22073,"BSTAR":1.6874999e-5,"MEAN_MOTION_DOT":-1.9e-7,"MEAN_MOTION_DDOT":0},{"OBJECT_NAME":"OBJECT H","OBJECT_ID":"2025-313H","EPOCH":"2026-03-09T22:36:06.294528","MEAN_MOTION":15.02722765,"ECCENTRICITY":0.0085698,"INCLINATION":97.296,"RA_OF_ASC_NODE":142.3052,"ARG_OF_PERICENTER":313.0136,"MEAN_ANOMALY":46.393,"EPHEMERIS_TYPE":0,"CLASSIFICATION_TYPE":"U","NORAD_CAT_ID":67255,"ELEMENT_SET_NO":999,"REV_AT_EPOCH":1072,"BSTAR":0.0002424576,"MEAN_MOTION_DOT":3.444e-5,"MEAN_MOTION_DDOT":0}]
